{
  "type": "FeatureCollection",
  "features": [
    {
      "type": "Feature",
      "properties": {
        "norad_id": 66475,
        "name": "STARLINK-35538",
        "group": "last-30-days",
        "lat": 39.299534521485995,
        "lon": 178.30011753830348,
        "alt_km": 438.5277264135748,
        "timestamp": "2025-12-14T16:47:39.435774+00:00",
        "meta_object_name": "STARLINK-35538",
        "meta_object_id": "2025-262V",
        "meta_epoch": "2025-12-13T22:00:00.999936",
        "meta_mean_motion": 15.4067733,
        "meta_eccentricity": 0.000108,
        "meta_inclination": 43.0009,
        "meta_ra_of_asc_node": 64.2521,
        "meta_arg_of_pericenter": 294.3897,
        "meta_mean_anomaly": 148.7802,
        "meta_ephemeris_type": 0,
        "meta_classification_type": "U",
        "meta_norad_cat_id": 66475,
        "meta_element_set_no": 999,
        "meta_rev_at_epoch": 582,
        "meta_bstar": 0.00028484131,
        "meta_mean_motion_dot": 0.00011604,
        "meta_mean_motion_ddot": 0,
        "tle_line1": "1 66475U 25262V   25347.91667824  .00011604  00000+0  28484-3 0  9999",
        "tle_line2": "2 66475  43.0009  64.2521 0001080 294.3897 148.7802 15.40677330  5828"
      },
      "geometry": {
        "type": "Point",
        "coordinates": [
          178.30011753830348,
          39.299534521485995
        ]
      }
    },
    {
      "type": "Feature",
      "properties": {
        "norad_id": 66476,
        "name": "STARLINK-35372",
        "group": "last-30-days",
        "lat": 34.89341179066248,
        "lon": -168.74208030444544,
        "alt_km": 443.99257300667796,
        "timestamp": "2025-12-14T16:47:39.435785+00:00",
        "meta_object_name": "STARLINK-35372",
        "meta_object_id": "2025-262W",
        "meta_epoch": "2025-12-13T22:00:00.999936",
        "meta_mean_motion": 15.41766675,
        "meta_eccentricity": 0.00016701,
        "meta_inclination": 43.0006,
        "meta_ra_of_asc_node": 64.2239,
        "meta_arg_of_pericenter": 260.955,
        "meta_mean_anomaly": 194.0707,
        "meta_ephemeris_type": 0,
        "meta_classification_type": "U",
        "meta_norad_cat_id": 66476,
        "meta_element_set_no": 999,
        "meta_rev_at_epoch": 572,
        "meta_bstar": -0.039384508,
        "meta_mean_motion_dot": -0.01536474,
        "meta_mean_motion_ddot": 0,
        "tle_line1": "1 66476U 25262W   25347.91667824 -.01536474  00000+0 -39385-1 0  9990",
        "tle_line2": "2 66476  43.0006  64.2239 0001670 260.9550 194.0707 15.41766675  5721"
      },
      "geometry": {
        "type": "Point",
        "coordinates": [
          -168.74208030444544,
          34.89341179066248
        ]
      }
    },
    {
      "type": "Feature",
      "properties": {
        "norad_id": 66477,
        "name": "STARLINK-35354",
        "group": "last-30-days",
        "lat": 20.492858774046624,
        "lon": -143.99677585146097,
        "alt_km": 440.3777182070544,
        "timestamp": "2025-12-14T16:47:39.435796+00:00",
        "meta_object_name": "STARLINK-35354",
        "meta_object_id": "2025-262X",
        "meta_epoch": "2025-12-13T22:00:00.999936",
        "meta_mean_motion": 15.44624212,
        "meta_eccentricity": 0.00013831,
        "meta_inclination": 43.0011,
        "meta_ra_of_asc_node": 64.1755,
        "meta_arg_of_pericenter": 278.9423,
        "meta_mean_anomaly": 195.4446,
        "meta_ephemeris_type": 0,
        "meta_classification_type": "U",
        "meta_norad_cat_id": 66477,
        "meta_element_set_no": 999,
        "meta_rev_at_epoch": 582,
        "meta_bstar": -0.049172568,
        "meta_mean_motion_dot": -0.02079886,
        "meta_mean_motion_ddot": 0,
        "tle_line1": "1 66477U 25262X   25347.91667824 -.02079886  00000+0 -49173-1 0  9997",
        "tle_line2": "2 66477  43.0011  64.1755 0001383 278.9423 195.4446 15.44624212  5828"
      },
      "geometry": {
        "type": "Point",
        "coordinates": [
          -143.99677585146097,
          20.492858774046624
        ]
      }
    },
    {
      "type": "Feature",
      "properties": {
        "norad_id": 66478,
        "name": "STARLINK-35283",
        "group": "last-30-days",
        "lat": 13.19278812991405,
        "lon": -134.94943477632168,
        "alt_km": 437.5899504643512,
        "timestamp": "2025-12-14T16:47:39.435806+00:00",
        "meta_object_name": "STARLINK-35283",
        "meta_object_id": "2025-262Y",
        "meta_epoch": "2025-12-13T22:00:00.999936",
        "meta_mean_motion": 15.45965339,
        "meta_eccentricity": 0.000159,
        "meta_inclination": 43.001,
        "meta_ra_of_asc_node": 64.1568,
        "meta_arg_of_pericenter": 283.3368,
        "meta_mean_anomaly": 198.6135,
        "meta_ephemeris_type": 0,
        "meta_classification_type": "U",
        "meta_norad_cat_id": 66478,
        "meta_element_set_no": 999,
        "meta_rev_at_epoch": 582,
        "meta_bstar": -0.047170027,
        "meta_mean_motion_dot": -0.02088959,
        "meta_mean_motion_ddot": 0,
        "tle_line1": "1 66478U 25262Y   25347.91667824 -.02088959  00000+0 -47170-1 0  9994",
        "tle_line2": "2 66478  43.0010  64.1568 0001590 283.3368 198.6135 15.45965339  5827"
      },
      "geometry": {
        "type": "Point",
        "coordinates": [
          -134.94943477632168,
          13.19278812991405
        ]
      }
    },
    {
      "type": "Feature",
      "properties": {
        "norad_id": 66479,
        "name": "STARLINK-35581",
        "group": "last-30-days",
        "lat": 28.318212616243702,
        "lon": -155.64855427799068,
        "alt_km": 445.6129326748587,
        "timestamp": "2025-12-14T16:47:39.435817+00:00",
        "meta_object_name": "STARLINK-35581",
        "meta_object_id": "2025-262Z",
        "meta_epoch": "2025-12-13T22:00:00.999936",
        "meta_mean_motion": 15.4385731,
        "meta_eccentricity": 0.00012563,
        "meta_inclination": 43.0011,
        "meta_ra_of_asc_node": 64.1957,
        "meta_arg_of_pericenter": 309.7484,
        "meta_mean_anomaly": 155.5125,
        "meta_ephemeris_type": 0,
        "meta_classification_type": "U",
        "meta_norad_cat_id": 66479,
        "meta_element_set_no": 999,
        "meta_rev_at_epoch": 582,
        "meta_bstar": -0.070840922,
        "meta_mean_motion_dot": -0.02913832,
        "meta_mean_motion_ddot": 0,
        "tle_line1": "1 66479U 25262Z   25347.91667824 -.02913832  00000+0 -70841-1 0  9993",
        "tle_line2": "2 66479  43.0011  64.1957 0001256 309.7484 155.5125 15.43857310  5820"
      },
      "geometry": {
        "type": "Point",
        "coordinates": [
          -155.64855427799068,
          28.318212616243702
        ]
      }
    },
    {
      "type": "Feature",
      "properties": {
        "norad_id": 66480,
        "name": "STARLINK-35670",
        "group": "last-30-days",
        "lat": 6.562062079616187,
        "lon": -127.4956292926266,
        "alt_km": 434.28782485126703,
        "timestamp": "2025-12-14T16:47:39.435828+00:00",
        "meta_object_name": "STARLINK-35670",
        "meta_object_id": "2025-262AA",
        "meta_epoch": "2025-12-13T22:00:00.999936",
        "meta_mean_motion": 15.4730138,
        "meta_eccentricity": 0.00011793,
        "meta_inclination": 43.0011,
        "meta_ra_of_asc_node": 64.1412,
        "meta_arg_of_pericenter": 281.5162,
        "meta_mean_anomaly": 206.5888,
        "meta_ephemeris_type": 0,
        "meta_classification_type": "U",
        "meta_norad_cat_id": 66480,
        "meta_element_set_no": 999,
        "meta_rev_at_epoch": 582,
        "meta_bstar": -0.045329584,
        "meta_mean_motion_dot": -0.02101502,
        "meta_mean_motion_ddot": 0,
        "tle_line1": "1 66480U 25262AA  25347.91667824 -.02101502  00000+0 -45330-1 0  9993",
        "tle_line2": "2 66480  43.0011  64.1412 0001179 281.5162 206.5888 15.47301380  5820"
      },
      "geometry": {
        "type": "Point",
        "coordinates": [
          -127.4956292926266,
          6.562062079616187
        ]
      }
    },
    {
      "type": "Feature",
      "properties": {
        "norad_id": 66481,
        "name": "STARLINK-35698",
        "group": "last-30-days",
        "lat": -7.77156747806871,
        "lon": -112.03718807078357,
        "alt_km": 415.2437967137721,
        "timestamp": "2025-12-14T16:47:39.435838+00:00",
        "meta_object_name": "STARLINK-35698",
        "meta_object_id": "2025-262AB",
        "meta_epoch": "2025-12-13T12:08:51.752256",
        "meta_mean_motion": 15.50571361,
        "meta_eccentricity": 0.00023354,
        "meta_inclination": 43.0008,
        "meta_ra_of_asc_node": 66.5258,
        "meta_arg_of_pericenter": 281.4297,
        "meta_mean_anomaly": 78.6301,
        "meta_ephemeris_type": 0,
        "meta_classification_type": "U",
        "meta_norad_cat_id": 66481,
        "meta_element_set_no": 999,
        "meta_rev_at_epoch": 568,
        "meta_bstar": 0.0018232068,
        "meta_mean_motion_dot": 0.0010808,
        "meta_mean_motion_ddot": 0,
        "tle_line1": "1 66481U 25262AB  25347.50615454  .00108080  00000+0  18232-2 0  9997",
        "tle_line2": "2 66481  43.0008  66.5258 0002335 281.4297  78.6301 15.50571361  5688"
      },
      "geometry": {
        "type": "Point",
        "coordinates": [
          -112.03718807078357,
          -7.77156747806871
        ]
      }
    }
  ]
}